{
  "type": "FeatureCollection",
  "features": [
    {
      "type": "Feature",
      "properties": {
        "norad_id": 38143,
        "name": "FENGYUN 1C DEB",
        "group": "fengyun-1c-debris",
        "lat": 57.98702018949659,
        "lon": -110.24808498857132,
        "alt_km": 853.9153648594447,
        "timestamp": "2025-12-25T03:55:56.647868+00:00",
        "meta_object_name": "FENGYUN 1C DEB",
        "meta_object_id": "1999-025EQQ",
        "meta_epoch": "2025-12-17T09:02:58.047936",
        "meta_mean_motion": 14.0490641,
        "meta_eccentricity": 0.00563343,
        "meta_inclination": 99.0304,
        "meta_ra_of_asc_node": 47.2681,
        "meta_arg_of_pericenter": 207.7954,
        "meta_mean_anomaly": 152.0199,
        "meta_ephemeris_type": 0,
        "meta_classification_type": "U",
        "meta_norad_cat_id": 38143,
        "meta_element_set_no": 999,
        "meta_rev_at_epoch": 60348,
        "meta_bstar": 0.00075665918,
        "meta_mean_motion_dot": 1.189e-05,
        "meta_mean_motion_ddot": 0,
        "tle_line1": "1 38143U 99025EQQ 25351.37706074  .00001189  00000+0  75666-3 0  9995",
        "tle_line2": "2 38143  99.0304  47.2681 0056334 207.7954 152.0199 14.04906410603486"
      },
      "geometry": {
        "type": "Point",
        "coordinates": [
          -110.24808498857132,
          57.98702018949659
        ]
      }
    },
    {
      "type": "Feature",
      "properties": {
        "norad_id": 38144,
        "name": "FENGYUN 1C DEB",
        "group": "fengyun-1c-debris",
        "lat": -53.14581837306598,
        "lon": -9.576317988009981,
        "alt_km": 982.4946488317673,
        "timestamp": "2025-12-25T03:55:56.647879+00:00",
        "meta_object_name": "FENGYUN 1C DEB",
        "meta_object_id": "1999-025EQR",
        "meta_epoch": "2025-12-12T07:21:41.538528",
        "meta_mean_motion": 13.59024242,
        "meta_eccentricity": 0.02903277,
        "meta_inclination": 98.9688,
        "meta_ra_of_asc_node": 170.8072,
        "meta_arg_of_pericenter": 192.7812,
        "meta_mean_anomaly": 166.5857,
        "meta_ephemeris_type": 0,
        "meta_classification_type": "U",
        "meta_norad_cat_id": 38144,
        "meta_element_set_no": 999,
        "meta_rev_at_epoch": 61031,
        "meta_bstar": 0.0024533733,
        "meta_mean_motion_dot": 2.337e-05,
        "meta_mean_motion_ddot": 0,
        "tle_line1": "1 38144U 99025EQR 25346.30673077  .00002337  00000+0  24534-2 0  9992",
        "tle_line2": "2 38144  98.9688 170.8072 0290327 192.7812 166.5857 13.59024242610319"
      },
      "geometry": {
        "type": "Point",
        "coordinates": [
          -9.576317988009981,
          -53.14581837306598
        ]
      }
    },
    {
      "type": "Feature",
      "properties": {
        "norad_id": 38146,
        "name": "FENGYUN 1C DEB",
        "group": "fengyun-1c-debris",
        "lat": -48.30885706739411,
        "lon": 92.25903888948798,
        "alt_km": 759.8916937229678,
        "timestamp": "2025-12-25T03:55:56.647889+00:00",
        "meta_object_name": "FENGYUN 1C DEB",
        "meta_object_id": "1999-025EQT",
        "meta_epoch": "2025-12-18T00:08:51.919008",
        "meta_mean_motion": 14.59286747,
        "meta_eccentricity": 0.02022294,
        "meta_inclination": 99.4834,
        "meta_ra_of_asc_node": 73.268,
        "meta_arg_of_pericenter": 87.2264,
        "meta_mean_anomaly": 84.0387,
        "meta_ephemeris_type": 0,
        "meta_classification_type": "U",
        "meta_norad_cat_id": 38146,
        "meta_element_set_no": 999,
        "meta_rev_at_epoch": 31956,
        "meta_bstar": 0.00063226228,
        "meta_mean_motion_dot": 3.907e-05,
        "meta_mean_motion_ddot": 0,
        "tle_line1": "1 38146U 99025EQT 25352.00615647  .00003907  00000+0  63226-3 0  9993",
        "tle_line2": "2 38146  99.4834  73.2680 0202229  87.2264  84.0387 14.59286747319560"
      },
      "geometry": {
        "type": "Point",
        "coordinates": [
          92.25903888948798,
          -48.30885706739411
        ]
      }
    },
    {
      "type": "Feature",
      "properties": {
        "norad_id": 38147,
        "name": "FENGYUN 1C DEB",
        "group": "fengyun-1c-debris",
        "lat": -41.31706702043631,
        "lon": 20.653709773253308,
        "alt_km": 799.452429842986,
        "timestamp": "2025-12-25T03:55:56.647899+00:00",
        "meta_object_name": "FENGYUN 1C DEB",
        "meta_object_id": "1999-025EQU",
        "meta_epoch": "2025-12-24T06:11:51.590400",
        "meta_mean_motion": 14.23473632,
        "meta_eccentricity": 0.00496347,
        "meta_inclination": 98.5575,
        "meta_ra_of_asc_node": 12.1669,
        "meta_arg_of_pericenter": 266.0478,
        "meta_mean_anomaly": 93.5026,
        "meta_ephemeris_type": 0,
        "meta_classification_type": "U",
        "meta_norad_cat_id": 38147,
        "meta_element_set_no": 999,
        "meta_rev_at_epoch": 60551,
        "meta_bstar": 0.0005418078,
        "meta_mean_motion_dot": 1.204e-05,
        "meta_mean_motion_ddot": 0,
        "tle_line1": "1 38147U 99025EQU 25358.25823600  .00001204  00000+0  54181-3 0  9995",
        "tle_line2": "2 38147  98.5575  12.1669 0049634 266.0478  93.5026 14.23473632605515"
      },
      "geometry": {
        "type": "Point",
        "coordinates": [
          20.653709773253308,
          -41.31706702043631
        ]
      }
    },
    {
      "type": "Feature",
      "properties": {
        "norad_id": 38149,
        "name": "FENGYUN 1C DEB",
        "group": "fengyun-1c-debris",
        "lat": -30.0234634158429,
        "lon": 165.9519567308906,
        "alt_km": 806.1917110841896,
        "timestamp": "2025-12-25T03:55:56.647910+00:00",
        "meta_object_name": "FENGYUN 1C DEB",
        "meta_object_id": "1999-025EQW",
        "meta_epoch": "2025-12-24T16:51:08.815104",
        "meta_mean_motion": 14.25930229,
        "meta_eccentricity": 0.0078545,
        "meta_inclination": 98.3575,
        "meta_ra_of_asc_node": 350.3849,
        "meta_arg_of_pericenter": 126.3504,
        "meta_mean_anomaly": 234.4959,
        "meta_ephemeris_type": 0,
        "meta_classification_type": "U",
        "meta_norad_cat_id": 38149,
        "meta_element_set_no": 999,
        "meta_rev_at_epoch": 70658,
        "meta_bstar": 0.00019439,
        "meta_mean_motion_dot": 4.38e-06,
        "meta_mean_motion_ddot": 0,
        "tle_line1": "1 38149U 99025EQW 25358.70218536  .00000438  00000+0  19439-3 0  9998",
        "tle_line2": "2 38149  98.3575 350.3849 0078545 126.3504 234.4959 14.25930229706585"
      },
      "geometry": {
        "type": "Point",
        "coordinates": [
          165.9519567308906,
          -30.0234634158429
        ]
      }
    },
    {
      "type": "Feature",
      "properties": {
        "norad_id": 38155,
        "name": "FENGYUN 1C DEB",
        "group": "fengyun-1c-debris",
        "lat": 67.0841265039943,
        "lon": 103.62716536736544,
        "alt_km": 735.5042160795902,
        "timestamp": "2025-12-25T03:55:56.647920+00:00",
        "meta_object_name": "FENGYUN 1C DEB",
        "meta_object_id": "1999-025ERC",
        "meta_epoch": "2025-12-18T23:08:16.383264",
        "meta_mean_motion": 14.25112386,
        "meta_eccentricity": 0.00979258,
        "meta_inclination": 98.4473,
        "meta_ra_of_asc_node": 257.0769,
        "meta_arg_of_pericenter": 108.7402,
        "meta_mean_anomaly": 252.4435,
        "meta_ephemeris_type": 0,
        "meta_classification_type": "U",
        "meta_norad_cat_id": 38155,
        "meta_element_set_no": 999,
        "meta_rev_at_epoch": 63864,
        "meta_bstar": 0.0016814228,
        "meta_mean_motion_dot": 4.107e-05,
        "meta_mean_motion_ddot": 0,
        "tle_line1": "1 38155U 99025ERC 25352.96407851  .00004107  00000+0  16814-2 0  9997",
        "tle_line2": "2 38155  98.4473 257.0769 0097925 108.7402 252.4435 14.25112386638644"
      },
      "geometry": {
        "type": "Point",
        "coordinates": [
          103.62716536736544,
          67.0841265039943
        ]
      }
    },
    {
      "type": "Feature",
      "properties": {
        "norad_id": 38157,
        "name": "FENGYUN 1C DEB",
        "group": "fengyun-1c-debris",
        "lat": 10.390559270475185,
        "lon": -94.48564553440453,
        "alt_km": 744.8755243397118,
        "timestamp": "2025-12-25T03:55:56.647930+00:00",
        "meta_object_name": "FENGYUN 1C DEB",
        "meta_object_id": "1999-025ERE",
        "meta_epoch": "2025-12-22T04:56:52.679328",
        "meta_mean_motion": 14.21771497,
        "meta_eccentricity": 0.02743434,
        "meta_inclination": 99.6568,
        "meta_ra_of_asc_node": 264.065,
        "meta_arg_of_pericenter": 87.817,
        "meta_mean_anomaly": 275.4389,
        "meta_ephemeris_type": 0,
        "meta_classification_type": "U",
        "meta_norad_cat_id": 38157,
        "meta_element_set_no": 999,
        "meta_rev_at_epoch": 76382,
        "meta_bstar": 0.00067847723,
        "meta_mean_motion_dot": 2.134e-05,
        "meta_mean_motion_ddot": 0,
        "tle_line1": "1 38157U 99025ERE 25356.20616527  .00002134  00000+0  67848-3 0  9994",
        "tle_line2": "2 38157  99.6568 264.0650 0274343  87.8170 275.4389 14.21771497763823"
      },
      "geometry": {
        "type": "Point",
        "coordinates": [
          -94.48564553440453,
          10.390559270475185
        ]
      }
    }
  ]
}